[
    {
        "Altitude(m)": 711355.1240504993,
        "Argument of Periapsis(deg)": 0.010251109067964361,
        "Eccentricity": 0.0,
        "Inclination(deg)": 45.0,
        "Latitude(deg)": -29.076296110475255,
        "Longitude(deg)": 82.88437734946548,
        "Mean Anomaly(deg)": -136.89280501726722,
        "RAAN(deg)": 329.99032325268763,
        "Satellite Name": "Constellation 1 1465",
        "Satellite Number": 1465,
        "Semi-Major Axis(m)": 7083131.272910544,
        "Time(s)": 171
    },
    {
        "Altitude(m)": 711368.8854184977,
        "Argument of Periapsis(deg)": 0.010311057074209765,
        "Eccentricity": 0.0,
        "Inclination(deg)": 45.0,
        "Latitude(deg)": -29.11214587057589,
        "Longitude(deg)": 82.93621296660709,
        "Mean Anomaly(deg)": -136.8321038770174,
        "RAAN(deg)": 329.99026666352205,
        "Satellite Name": "Constellation 1 1465",
        "Satellite Number": 1465,
        "Semi-Major Axis(m)": 7083131.272910544,
        "Time(s)": 172
    },
    {
        "Altitude(m)": 711382.6439047368,
        "Argument of Periapsis(deg)": 0.010371005080455171,
        "Eccentricity": 0.0,
        "Inclination(deg)": 45.0,
        "Latitude(deg)": -29.147972011803752,
        "Longitude(deg)": 82.98808722112751,
        "Mean Anomaly(deg)": -136.77140273676744,
        "RAAN(deg)": 329.99021007435647,
        "Satellite Name": "Constellation 1 1465",
        "Satellite Number": 1465,
        "Semi-Major Axis(m)": 7083131.272910544,
        "Time(s)": 173
    },
    {
        "Altitude(m)": 711396.3994611745,
        "Argument of Periapsis(deg)": 0.010430953086700577,
        "Eccentricity": 0.0,
        "Inclination(deg)": 45.0,
        "Latitude(deg)": -29.183774484081184,
        "Longitude(deg)": 83.04000017138814,
        "Mean Anomaly(deg)": -136.71070159651754,
        "RAAN(deg)": 329.9901534851909,
        "Satellite Name": "Constellation 1 1465",
        "Satellite Number": 1465,
        "Semi-Major Axis(m)": 7083131.272910544,
        "Time(s)": 174
    },
    {
        "Altitude(m)": 711410.152039753,
        "Argument of Periapsis(deg)": 0.010490901092945983,
        "Eccentricity": 0.0,
        "Inclination(deg)": 45.0,
        "Latitude(deg)": -29.219553237259962,
        "Longitude(deg)": 83.09195187570761,
        "Mean Anomaly(deg)": -136.6500004562677,
        "RAAN(deg)": 329.9900968960253,
        "Satellite Name": "Constellation 1 1465",
        "Satellite Number": 1465,
        "Semi-Major Axis(m)": 7083131.272910544,
        "Time(s)": 175
    },
    {
        "Altitude(m)": 711423.9015924336,
        "Argument of Periapsis(deg)": 0.010550849099191389,
        "Eccentricity": 0.0,
        "Inclination(deg)": 45.0,
        "Latitude(deg)": -29.255308221121137,
        "Longitude(deg)": 83.14394239236066,
        "Mean Anomaly(deg)": -136.58929931601773,
        "RAAN(deg)": 329.9900403068598,
        "Satellite Name": "Constellation 1 1465",
        "Satellite Number": 1465,
        "Semi-Major Axis(m)": 7083131.272910544,
        "Time(s)": 176
    },
    {
        "Altitude(m)": 711437.6480711646,
        "Argument of Periapsis(deg)": 0.010610797105436795,
        "Eccentricity": 0.0,
        "Inclination(deg)": 45.0,
        "Latitude(deg)": -29.291039385374948,
        "Longitude(deg)": 83.19597177957785,
        "Mean Anomaly(deg)": -136.5285981757678,
        "RAAN(deg)": 329.9899837176942,
        "Satellite Name": "Constellation 1 1465",
        "Satellite Number": 1465,
        "Semi-Major Axis(m)": 7083131.272910544,
        "Time(s)": 177
    },
    {
        "Altitude(m)": 711451.3914279045,
        "Argument of Periapsis(deg)": 0.0106707451116822,
        "Eccentricity": 0.0,
        "Inclination(deg)": 45.0,
        "Latitude(deg)": -29.326746679660754,
        "Longitude(deg)": 83.24803992744793,
        "Mean Anomaly(deg)": -136.46789703551792,
        "RAAN(deg)": 329.9899271285286,
        "Satellite Name": "Constellation 1 1465",
        "Satellite Number": 1465,
        "Semi-Major Axis(m)": 7083131.272910544,
        "Time(s)": 178
    },
    {
        "Altitude(m)": 711465.1316146076,
        "Argument of Periapsis(deg)": 0.010730693117927606,
        "Eccentricity": 0.0,
        "Inclination(deg)": 45.0,
        "Latitude(deg)": -29.36243005354707,
        "Longitude(deg)": 83.30014723030514,
        "Mean Anomaly(deg)": -136.40719589526805,
        "RAAN(deg)": 329.98987053936304,
        "Satellite Name": "Constellation 1 1465",
        "Satellite Number": 1465,
        "Semi-Major Axis(m)": 7083131.272910544,
        "Time(s)": 179
    },
    {
        "Altitude(m)": 711478.8685832252,
        "Argument of Periapsis(deg)": 0.01079064112417301,
        "Eccentricity": 0.0,
        "Inclination(deg)": 45.0,
        "Latitude(deg)": -29.398089456531533,
        "Longitude(deg)": 83.35229357814679,
        "Mean Anomaly(deg)": -136.34649475501817,
        "RAAN(deg)": 329.98981395019746,
        "Satellite Name": "Constellation 1 1465",
        "Satellite Number": 1465,
        "Semi-Major Axis(m)": 7083131.272910544,
        "Time(s)": 180
    },
    {
        "Altitude(m)": 711492.6022857259,
        "Argument of Periapsis(deg)": 0.010850589130418416,
        "Eccentricity": 0.0,
        "Inclination(deg)": 45.0,
        "Latitude(deg)": -29.43372483804081,
        "Longitude(deg)": 83.4044790290206,
        "Mean Anomaly(deg)": -136.28579361476824,
        "RAAN(deg)": 329.9897573610319,
        "Satellite Name": "Constellation 1 1465",
        "Satellite Number": 1465,
        "Semi-Major Axis(m)": 7083131.272910544,
        "Time(s)": 181
    },
    {
        "Altitude(m)": 711506.3326740622,
        "Argument of Periapsis(deg)": 0.01091053713666382,
        "Eccentricity": 0.0,
        "Inclination(deg)": 45.0,
        "Latitude(deg)": -29.469336147430457,
        "Longitude(deg)": 83.45670364092685,
        "Mean Anomaly(deg)": -136.2250924745184,
        "RAAN(deg)": 329.98970077186635,
        "Satellite Name": "Constellation 1 1465",
        "Satellite Number": 1465,
        "Semi-Major Axis(m)": 7083131.272910544,
        "Time(s)": 182
    },
    {
        "Altitude(m)": 711520.0597002017,
        "Argument of Periapsis(deg)": 0.010970485142909228,
        "Eccentricity": 0.0,
        "Inclination(deg)": 45.0,
        "Latitude(deg)": -29.504923333985136,
        "Longitude(deg)": 83.50896747181821,
        "Mean Anomaly(deg)": -136.16439133426843,
        "RAAN(deg)": 329.9896441827008,
        "Satellite Name": "Constellation 1 1465",
        "Satellite Number": 1465,
        "Semi-Major Axis(m)": 7083131.272910544,
        "Time(s)": 183
    },
    {
        "Altitude(m)": 711533.783316108,
        "Argument of Periapsis(deg)": 0.011030433149154634,
        "Eccentricity": 0.0,
        "Inclination(deg)": 45.0,
        "Latitude(deg)": -29.540486346918275,
        "Longitude(deg)": 83.56127057959841,
        "Mean Anomaly(deg)": -136.10369019401853,
        "RAAN(deg)": 329.9895875935352,
        "Satellite Name": "Constellation 1 1465",
        "Satellite Number": 1465,
        "Semi-Major Axis(m)": 7083131.272910544,
        "Time(s)": 184
    },
    {
        "Altitude(m)": 711547.5034737462,
        "Argument of Periapsis(deg)": 0.01109038115540004,
        "Eccentricity": 0.0,
        "Inclination(deg)": 45.0,
        "Latitude(deg)": -29.576025135372234,
        "Longitude(deg)": 83.61361285402577,
        "Mean Anomaly(deg)": -136.04298905376868,
        "RAAN(deg)": 329.9895310043696,
        "Satellite Name": "Constellation 1 1465",
        "Satellite Number": 1465,
        "Semi-Major Axis(m)": 7083131.272910544,
        "Time(s)": 185
    },
    {
        "Altitude(m)": 711561.220125093,
        "Argument of Periapsis(deg)": 0.011150329161645444,
        "Eccentricity": 0.0,
        "Inclination(deg)": 45.0,
        "Latitude(deg)": -29.611539648418194,
        "Longitude(deg)": 83.66599468909918,
        "Mean Anomaly(deg)": -135.98228791351875,
        "RAAN(deg)": 329.98947441520403,
        "Satellite Name": "Constellation 1 1465",
        "Satellite Number": 1465,
        "Semi-Major Axis(m)": 7083131.272910544,
        "Time(s)": 186
    },
    {
        "Altitude(m)": 711574.9332221142,
        "Argument of Periapsis(deg)": 0.01121027716789085,
        "Eccentricity": 0.0,
        "Inclination(deg)": 45.0,
        "Latitude(deg)": -29.647029835055978,
        "Longitude(deg)": 83.71841597447654,
        "Mean Anomaly(deg)": -135.92158677326887,
        "RAAN(deg)": 329.9894178260385,
        "Satellite Name": "Constellation 1 1465",
        "Satellite Number": 1465,
        "Semi-Major Axis(m)": 7083131.272910544,
        "Time(s)": 187
    },
    {
        "Altitude(m)": 711588.6427167881,
        "Argument of Periapsis(deg)": 0.011270225174136258,
        "Eccentricity": 0.0,
        "Inclination(deg)": 45.0,
        "Latitude(deg)": -29.682495644214416,
        "Longitude(deg)": 83.77087676786192,
        "Mean Anomaly(deg)": -135.86088563301894,
        "RAAN(deg)": 329.9893612368729,
        "Satellite Name": "Constellation 1 1465",
        "Satellite Number": 1465,
        "Semi-Major Axis(m)": 7083131.272910544,
        "Time(s)": 188
    },
    {
        "Altitude(m)": 711602.3485610975,
        "Argument of Periapsis(deg)": 0.011330173180381662,
        "Eccentricity": 0.0,
        "Inclination(deg)": 45.0,
        "Latitude(deg)": -29.71793702475074,
        "Longitude(deg)": 83.82337712690723,
        "Mean Anomaly(deg)": -135.8001844927691,
        "RAAN(deg)": 329.9893046477074,
        "Satellite Name": "Constellation 1 1465",
        "Satellite Number": 1465,
        "Semi-Major Axis(m)": 7083131.272910544,
        "Time(s)": 189
    }
]